GLOBALSTAR M094         
1 39074U 13005C   25245.22286808 -.00000077  00000+0  15081-3 0  9998
2 39074  51.9969 307.5694 0000707  98.1680 261.9267 12.62269447582106
GLOBALSTAR M096         
1 39075U 13005D   25245.23598232 -.00000093  00000+0  62880-4 0  9995
2 39075  52.0107 356.1012 0000873  89.9171 270.1796 12.62266289581024
GLOBALSTAR M078         
1 39076U 13005E   25244.97227877 -.00000096  00000+0  42241-4 0  9992
2 39076  51.9865  81.3101 0001136  30.6277 329.4655 12.62259989579616
GLOBALSTAR M095         
1 39077U 13005F   25244.99825093 -.00000096  00000+0  42281-4 0  9993
2 39077  52.0075  78.4248 0001211  60.3160 299.7828 12.62259775579474
GLOBALSTAR M087         
1 52888U 22064A   25244.61671569 -.00000085  00000+0  10633-3 0  9992
2 52888  51.9975 220.9981 0000499  52.0293 308.0619 12.62301118154690
